ONEWEB-0029             
1 45445U 20020X   25200.43937560  .00000490  00000+0  13471-2 0  9992
2 45445  87.8825  87.3829 0002083  77.8460 282.2901 13.11416754259041
ONEWEB-0068             
1 45446U 20020Y   25200.95719774 -.00000227  00000+0 -67722-3 0  9994
2 45446  87.8825  87.2677 0001925  82.5505 277.5842 13.11419537259053
ONEWEB-0046             
1 45447U 20020Z   25200.94884116 -.00000480  00000+0 -13893-2 0  9997
2 45447  87.8830  87.2793 0001714  85.6886 274.4438 13.11416754259067
ONEWEB-0063             
1 45448U 20020AA  25200.21472109  .00000608  00000+0  16805-2 0  9999
2 45448  87.8820  87.4241 0001767  74.8794 285.2529 13.11416351259056
ONEWEB-0019             
1 45449U 20020AB  25200.95139564 -.00000406  00000+0 -11804-2 0  9998
2 45449  87.8830  87.2945 0001941  78.2379 281.8966 13.11418028258990
ONEWEB-0094             
1 45450U 20020AC  25200.90864631  .00000044  00000+0  79260-4 0  9993
2 45450  87.9049  71.9762 0001783  84.3663 275.7671 13.17649742262557
ONEWEB-0087             
1 45451U 20020AD  25200.91142789  .00000510  00000+0  14029-2 0  9996
2 45451  87.8814  87.2364 0001947  85.9766 274.1584 13.11415253259035
ONEWEB-0082             
1 45452U 20020AE  25200.45038802  .00000483  00000+0  13265-2 0  9996
2 45452  87.8822  87.3520 0002100  80.3467 279.7898 13.11417320259068
ONEWEB-0050             
1 45453U 20020AF  25200.60322690  .00002294  00000+0  23078-3 0  9991
2 45453  87.9986 287.1334 0005206  92.2029 267.9796 14.90802848290860
ONEWEB-0034             
1 45454U 20020AG  25200.92935657 -.00000268  00000+0 -79078-3 0  9992
2 45454  87.8825  87.2766 0001831  78.7541 281.3793 13.11415016259049
ONEWEB-0060             
1 45455U 20020AH  25200.44095454  .00000472  00000+0  12997-2 0  9993
2 45455  87.8822  87.4039 0001943  72.5162 287.6178 13.11150026258937
ONEWEB-0086             
1 45456U 20020AJ  25200.42154820 -.00000472  00000+0 -13669-2 0  9994
2 45456  87.8827  87.3756 0001971  89.4617 270.6737 13.11418570258991
ONEWEB-0088             
1 45457U 20020AK  25200.93358809 -.00000365  00000+0 -10655-2 0  9997
2 45457  87.8815  87.2217 0001795  82.2545 277.8787 13.11415089258991
ONEWEB-0102             
1 47258U 20100A   25200.89320489  .00000503  00000+0  13627-2 0  9999
2 47258  87.8855  56.7561 0001759  78.4831 281.6495 13.12444845221143
ONEWEB-0109             
1 47259U 20100B   25200.90131754  .00000405  00000+0  10891-2 0  9998
2 47259  87.8855  56.7242 0001801  79.0097 281.1234 13.12443595220976
ONEWEB-0110             
1 47260U 20100C   25200.85103186 -.00000343  00000+0 -98972-3 0  9992
2 47260  87.8853  56.7167 0002042  84.1262 276.0100 13.12442742221138
ONEWEB-0111             
1 47261U 20100D   25200.88184833  .00000176  00000+0  45497-3 0  9990
2 47261  87.8860  56.7262 0001746  82.2794 277.8533 13.12445587220972
ONEWEB-0114             
1 47262U 20100E   25200.83645390  .00000173  00000+0  44454-3 0  9995
2 47262  87.8848  56.7345 0001652  73.9074 286.2236 13.12446498220926
ONEWEB-0117             
1 47263U 20100F   25200.82833062  .00000420  00000+0  11324-2 0  9994
2 47263  87.8856  56.7287 0001811  84.1625 275.9710 13.12441625220934
ONEWEB-0118             
1 47264U 20100G   25200.86076059 -.00000585  00000+0 -16627-2 0  9999
2 47264  87.8851  56.7233 0001391  78.8617 281.2668 13.12442898221133
ONEWEB-0119             
1 47265U 20100H   25200.88835101  .00000375  00000+0  10069-2 0  9992
2 47265  87.8856  56.7563 0001823  82.8370 277.2966 13.12442635221119
ONEWEB-0120             
1 47266U 20100J   25200.83495217  .00000112  00000+0  27674-3 0  9998
2 47266  87.8862  56.7634 0001724  79.2363 280.8959 13.12441022221131
ONEWEB-0121             
1 47267U 20100K   25200.89971407  .00000514  00000+0  13939-2 0  9999
2 47267  87.8854  56.7205 0001875  84.1398 275.9945 13.12440336221055
ONEWEB-0122             
1 47268U 20100L   25200.89470160  .00000426  00000+0  11492-2 0  9994
2 47268  87.8852  56.7260 0001865  79.6135 280.5203 13.12442198220968
ONEWEB-0123             
1 47269U 20100M   25200.88997162  .00000383  00000+0  10285-2 0  9991
2 47269  87.8854  56.7545 0001676  83.6787 276.4532 13.12443074221105
ONEWEB-0124             
1 47270U 20100N   25200.87860154 -.00000150  00000+0 -45322-3 0  9997
2 47270  87.8863  56.7553 0001866  88.8477 271.2865 13.12443426220988
ONEWEB-0125             
1 47271U 20100P   25200.85589224 -.00000338  00000+0 -97532-3 0  9990
2 47271  87.8859  56.7234 0001669  91.9331 268.1989 13.12441978221045
ONEWEB-0126             
1 47272U 20100Q   25200.87713444  .00000053  00000+0  11073-3 0  9994
2 47272  87.8873  56.7353 0001740  80.4940 279.6385 13.12443830221117
ONEWEB-0127             
1 47273U 20100R   25200.84292022 -.00000031  00000+0 -12177-3 0  9990
2 47273  87.8860  56.7586 0001799  79.0467 281.0864 13.12441202221136
ONEWEB-0128             
1 47274U 20100S   25200.86562324 -.00000372  00000+0 -10701-2 0  9996
2 47274  87.8859  56.7814 0002010  80.3703 279.7653 13.12442236221154
ONEWEB-0129             
1 47275U 20100T   25200.84454318 -.00000202  00000+0 -59763-3 0  9992
2 47275  87.8857  56.7283 0001800  44.7092 315.4181 13.12441172221088
ONEWEB-0130             
1 47276U 20100U   25200.87213055 -.00000092  00000+0 -29108-3 0  9994
2 47276  87.8855  56.7234 0001839  80.5461 279.5875 13.12445124221051
ONEWEB-0131             
1 47277U 20100V   25200.86887486 -.00000261  00000+0 -76213-3 0  9996
2 47277  87.8858  56.7503 0001882  83.5859 276.5483 13.12444883221093
ONEWEB-0132             
1 47278U 20100W   25200.89808132  .00000524  00000+0  14201-2 0  9999
2 47278  87.8860  56.7463 0001867  90.4038 269.7305 13.12442302220990
ONEWEB-0133             
1 47279U 20100X   25200.83792199  .00000038  00000+0  69070-4 0  9995
2 47279  87.8849  56.7344 0001927  83.6629 276.4718 13.12441262221148
ONEWEB-0134             
1 47280U 20100Y   25200.88346874  .00000281  00000+0  74639-3 0  9993
2 47280  87.8853  56.7084 0001956  77.5490 282.5858 13.12445738221129
ONEWEB-0135             
1 47281U 20100Z   25200.85427127 -.00000321  00000+0 -92716-3 0  9995
2 47281  87.8854  56.7530 0002195  77.9230 282.2144 13.12441639221142
ONEWEB-0136             
1 47282U 20100AA  25200.87373394 -.00000299  00000+0 -86666-3 0  9995
2 47282  87.8860  56.7163 0002039  71.7507 288.3844 13.12443946221077
ONEWEB-0137             
1 47283U 20100AB  25200.83157155  .00000270  00000+0  71612-3 0  9999
2 47283  87.8855  56.7316 0001588  82.3436 277.7873 13.12441931220973
ONEWEB-0138             
1 47284U 20100AC  25200.88671535  .00000311  00000+0  82773-3 0  9994
2 47284  87.8855  56.7314 0001827  80.7366 279.3969 13.12445245221069
ONEWEB-0139             
1 47285U 20100AD  25200.84954593 -.00000299  00000+0 -86640-3 0  9993
2 47285  87.8855  56.7319 0001785  83.6643 276.4689 13.12440921221139
ONEWEB-0140             
1 47286U 20100AE  25200.88022447 -.00000090  00000+0 -28647-3 0  9994
2 47286  87.8856  56.7096 0001846  79.8809 280.2527 13.12443976221106
ONEWEB-0141             
1 47287U 20100AF  25200.84926936 -.00000246  00000+0 -72028-3 0  9992
2 47287  87.8850  56.7339 0001420  83.5256 276.6034 13.12441221221087
ONEWEB-0142             
1 47288U 20100AG  25200.83820548 -.00000874  00000+0 -24663-2 0  9992
2 47288  87.8865  56.7433 0001631  77.6780 282.4531 13.12434309221074
ONEWEB-0143             
1 47289U 20100AH  25200.84778367 -.00000207  00000+0 -61192-3 0  9994
2 47289  87.8860  56.7400 0001760  84.0052 276.1277 13.12440330221057
ONEWEB-0144             
1 47290U 20100AJ  25200.89645117  .00000575  00000+0  15618-2 0  9994
2 47290  87.8851  56.7109 0001715  74.8241 285.3077 13.12444540220980
ONEWEB-0145             
1 47291U 20100AK  25200.86724843 -.00000422  00000+0 -12072-2 0  9990
2 47291  87.8863  56.7429 0001806  80.3750 279.7582 13.12444206221176
ONEWEB-0146             
1 47292U 20100AL  25200.33034263 -.00000451  00000+0 -12880-2 0  9992
2 47292  87.8862  56.8370 0001988  93.2721 266.8635 13.12442464221017
ONEWEB-0147             
1 47293U 20100AM  25200.82995149  .00000360  00000+0  96423-3 0  9999
2 47293  87.8856  56.7165 0002002  77.5444 282.5908 13.12441741220976
ONEWEB-0115             
1 48042U 21025A   25200.81286702  .00000329  00000+0  86592-3 0  9997
2 48042  87.8950  26.2478 0001821  91.5033 268.6305 13.13471139209968
ONEWEB-0152             
1 48043U 21025B   25200.75022555  .00000126  00000+0  31132-3 0  9990
2 48043  87.8955  26.2745 0001938  92.2293 267.9058 13.13470762209919
ONEWEB-0153             
1 48044U 21025C   25200.80440289  .00000352  00000+0  92933-3 0  9992
2 48044  87.8958  26.2618 0001747  88.8977 271.2353 13.13471805209915
ONEWEB-0154             
1 48045U 21025D   25200.80101054  .00000238  00000+0  61624-3 0  9993
2 48045  87.8953  26.2613 0001876  88.8000 271.3344 13.13472079209876
ONEWEB-0116             
1 48046U 21025E   25200.76376569 -.00000169  00000+0 -49669-3 0  9994
2 48046  87.8957  26.2491 0001905  92.9618 267.1729 13.13471061210017
ONEWEB-0150             
1 48047U 21025F   25200.74007205  .00000359  00000+0  94944-3 0  9996
2 48047  87.8952  26.2499 0001613  91.9576 268.1738 13.13469028209906
ONEWEB-0107             
1 48048U 21025G   25200.74176603  .00000271  00000+0  70740-3 0  9997
2 48048  87.8956  26.2476 0001676  80.2356 279.8962 13.13468721209886
ONEWEB-0101             
1 48049U 21025H   25200.78069966 -.00000197  00000+0 -57463-3 0  9991
2 48049  87.8960  26.2792 0001838  84.3412 275.7927 13.13471315209868
ONEWEB-0113             
1 48050U 21025J   25200.77739986 -.00000179  00000+0 -52153-3 0  9999
2 48050  87.8954  26.2298 0001840  94.1456 265.9884 13.13975135209956
ONEWEB-0112             
1 48051U 21025K   25200.74684216  .00000245  00000+0  63585-3 0  9995
2 48051  87.8951  26.2433 0001714  90.9943 269.1383 13.13471038209953
